{
    "links": {
        "self": "http://www.neowsapp.com/rest/v1/neo/3739151?api_key=iIulBulltgU6a56xZRHN4H3l9WmuAYTsLGpBGhQ2"
    },
    "id": "3739151",
    "neo_reference_id": "3739151",
    "name": "(2015 YC18)",
    "designation": "2015 YC18",
    "nasa_jpl_url": "http://ssd.jpl.nasa.gov/sbdb.cgi?sstr=3739151",
    "absolute_magnitude_h": 25.3,
    "estimated_diameter": {
        "kilometers": {
            "estimated_diameter_min": 0.0231502122,
            "estimated_diameter_max": 0.0517654482
        },
        "meters": {
            "estimated_diameter_min": 23.150212221,
            "estimated_diameter_max": 51.7654482198
        },
        "miles": {
            "estimated_diameter_min": 0.0143848705,
            "estimated_diameter_max": 0.0321655483
        },
        "feet": {
            "estimated_diameter_min": 75.9521422633,
            "estimated_diameter_max": 169.8341531374
        }
    },
    "is_potentially_hazardous_asteroid": false,
    "close_approach_data": [
        {
            "close_approach_date": "1916-12-23",
            "close_approach_date_full": "1916-Dec-23 20:30",
            "epoch_date_close_approach": -1673235000000,
            "relative_velocity": {
                "kilometers_per_second": "6.5703377083",
                "kilometers_per_hour": "23653.2157497806",
                "miles_per_hour": "14697.1884196345"
            },
            "miss_distance": {
                "astronomical": "0.0571675945",
                "lunar": "22.2381942605",
                "kilometers": "8552150.370223715",
                "miles": "5314059.823828667"
            },
            "orbiting_body": "Earth"
        },
        {
            "close_approach_date": "2016-01-09",
            "close_approach_date_full": "2016-Jan-09 06:15",
            "epoch_date_close_approach": 1452320100000,
            "relative_velocity": {
                "kilometers_per_second": "5.5362448746",
                "kilometers_per_hour": "19930.481548469",
                "miles_per_hour": "12384.0261599362"
            },
            "miss_distance": {
                "astronomical": "0.0894993908",
                "lunar": "34.8152630212",
                "kilometers": "13388918.229977596",
                "miles": "8319488.0083229848"
            },
            "orbiting_body": "Earth"
        },
        {
            "close_approach_date": "2016-06-23",
            "close_approach_date_full": "2016-Jun-23 00:26",
            "epoch_date_close_approach": 1466641560000,
            "relative_velocity": {
                "kilometers_per_second": "9.7907428845",
                "kilometers_per_hour": "35246.6743843548",
                "miles_per_hour": "21900.9127584343"
            },
            "miss_distance": {
                "astronomical": "0.0317286028",
                "lunar": "12.3424264892",
                "kilometers": "4746531.396956036",
                "miles": "2949357.8465278568"
            },
            "orbiting_body": "Mars"
        },
        {
            "close_approach_date": "2165-01-26",
            "close_approach_date_full": "2165-Jan-26 10:56",
            "epoch_date_close_approach": 6155866560000,
            "relative_velocity": {
                "kilometers_per_second": "11.453083931",
                "kilometers_per_hour": "41231.1021515395",
                "miles_per_hour": "25619.4034452163"
            },
            "miss_distance": {
                "astronomical": "0.0862660198",
                "lunar": "33.5574817022",
                "kilometers": "12905212.815457826",
                "miles": "8018927.4009209588"
            },
            "orbiting_body": "Mars"
        }
    ],
    "orbital_data": {
        "orbit_id": "5",
        "orbit_determination_date": "2017-12-21 06:27:07",
        "first_observation_date": "2015-12-26",
        "last_observation_date": "2016-01-07",
        "data_arc_in_days": 12,
        "observations_used": 15,
        "orbit_uncertainty": "7",
        "minimum_orbit_intersection": ".0515896",
        "jupiter_tisserand_invariant": "4.771",
        "epoch_osculation": "2459000.5",
        "eccentricity": ".326579547229531",
        "semi_major_axis": "1.366966493984373",
        "inclination": "5.429283629758295",
        "ascending_node_longitude": "57.94486287805611",
        "orbital_period": "583.7612071103887",
        "perihelion_distance": ".9205431953010168",
        "perihelion_argument": "78.75906839703271",
        "aphelion_distance": "1.813389792667728",
        "perihelion_time": "2459173.301093547793",
        "mean_anomaly": "253.4352044646196",
        "mean_motion": ".6166905159422907",
        "equinox": "J2000",
        "orbit_class": {
            "orbit_class_type": "APO",
            "orbit_class_description": "Near-Earth asteroid orbits which cross the Earth’s orbit similar to that of 1862 Apollo",
            "orbit_class_range": "a (semi-major axis) > 1.0 AU; q (perihelion) < 1.017 AU"
        }
    },
    "is_sentry_object": false
}